[
    {
        "Altitude(m)": 710865.7345892383,
        "Argument of Periapsis(deg)": 0.007973084830638947,
        "Eccentricity": 0.0,
        "Inclination(deg)": 45.0,
        "Latitude(deg)": -27.81871843186235,
        "Longitude(deg)": -47.188783655700725,
        "Mean Anomaly(deg)": -41.01764834676337,
        "RAAN(deg)": 84.99247364097926,
        "Satellite Name": "Constellation 1 393",
        "Satellite Number": 393,
        "Semi-Major Axis(m)": 7083131.272910544,
        "Time(s)": 133
    },
    {
        "Altitude(m)": 710851.8918659905,
        "Argument of Periapsis(deg)": 0.008033032836884352,
        "Eccentricity": 0.0,
        "Inclination(deg)": 45.0,
        "Latitude(deg)": -27.782057800265147,
        "Longitude(deg)": -47.13828819953334,
        "Mean Anomaly(deg)": -40.95694720651345,
        "RAAN(deg)": 84.99241705181369,
        "Satellite Name": "Constellation 1 393",
        "Satellite Number": 393,
        "Semi-Major Axis(m)": 7083131.272910544,
        "Time(s)": 134
    },
    {
        "Altitude(m)": 710838.0480341475,
        "Argument of Periapsis(deg)": 0.008092980843129758,
        "Eccentricity": 0.0,
        "Inclination(deg)": 45.0,
        "Latitude(deg)": -27.745375338293957,
        "Longitude(deg)": -47.08782921529525,
        "Mean Anomaly(deg)": -40.89624606626355,
        "RAAN(deg)": 84.99236046264812,
        "Satellite Name": "Constellation 1 393",
        "Satellite Number": 393,
        "Semi-Major Axis(m)": 7083131.272910544,
        "Time(s)": 135
    },
    {
        "Altitude(m)": 710824.2031416361,
        "Argument of Periapsis(deg)": 0.008152928849375162,
        "Eccentricity": 0.0,
        "Inclination(deg)": 45.0,
        "Latitude(deg)": -27.708671093404845,
        "Longitude(deg)": -47.03740664340264,
        "Mean Anomaly(deg)": -40.83554492601369,
        "RAAN(deg)": 84.99230387348256,
        "Satellite Name": "Constellation 1 393",
        "Satellite Number": 393,
        "Semi-Major Axis(m)": 7083131.272910544,
        "Time(s)": 136
    },
    {
        "Altitude(m)": 710810.3572363808,
        "Argument of Periapsis(deg)": 0.008212876855620568,
        "Eccentricity": 0.0,
        "Inclination(deg)": 45.0,
        "Latitude(deg)": -27.6719451129855,
        "Longitude(deg)": -46.9870204242491,
        "Mean Anomaly(deg)": -40.774843785763785,
        "RAAN(deg)": 84.99224728431697,
        "Satellite Name": "Constellation 1 393",
        "Satellite Number": 393,
        "Semi-Major Axis(m)": 7083131.272910544,
        "Time(s)": 137
    },
    {
        "Altitude(m)": 710796.5103663033,
        "Argument of Periapsis(deg)": 0.008272824861865974,
        "Eccentricity": 0.0,
        "Inclination(deg)": 45.0,
        "Latitude(deg)": -27.635197444355487,
        "Longitude(deg)": -46.93667049820628,
        "Mean Anomaly(deg)": -40.71414264551387,
        "RAAN(deg)": 84.99219069515141,
        "Satellite Name": "Constellation 1 393",
        "Satellite Number": 393,
        "Semi-Major Axis(m)": 7083131.272910544,
        "Time(s)": 138
    },
    {
        "Altitude(m)": 710782.6625793142,
        "Argument of Periapsis(deg)": 0.00833277286811138,
        "Eccentricity": 0.0,
        "Inclination(deg)": 45.0,
        "Latitude(deg)": -27.598428134766124,
        "Longitude(deg)": -46.886356805624104,
        "Mean Anomaly(deg)": -40.65344150526401,
        "RAAN(deg)": 84.99213410598585,
        "Satellite Name": "Constellation 1 393",
        "Satellite Number": 393,
        "Semi-Major Axis(m)": 7083131.272910544,
        "Time(s)": 139
    },
    {
        "Altitude(m)": 710768.8139233107,
        "Argument of Periapsis(deg)": 0.008392720874356788,
        "Eccentricity": 0.0,
        "Inclination(deg)": 45.0,
        "Latitude(deg)": -27.561637231400624,
        "Longitude(deg)": -46.83607928683132,
        "Mean Anomaly(deg)": -40.59274036501405,
        "RAAN(deg)": 84.99207751682027,
        "Satellite Name": "Constellation 1 393",
        "Satellite Number": 393,
        "Semi-Major Axis(m)": 7083131.272910544,
        "Time(s)": 140
    },
    {
        "Altitude(m)": 710754.9644461914,
        "Argument of Periapsis(deg)": 0.008452668880602192,
        "Eccentricity": 0.0,
        "Inclination(deg)": 45.0,
        "Latitude(deg)": -27.52482478137448,
        "Longitude(deg)": -46.785838050233366,
        "Mean Anomaly(deg)": -40.53203922476419,
        "RAAN(deg)": 84.9920209276547,
        "Satellite Name": "Constellation 1 393",
        "Satellite Number": 393,
        "Semi-Major Axis(m)": 7083131.272910544,
        "Time(s)": 141
    },
    {
        "Altitude(m)": 710741.1141958409,
        "Argument of Periapsis(deg)": 0.008512616886847598,
        "Eccentricity": 0.0,
        "Inclination(deg)": 45.0,
        "Latitude(deg)": -27.487990831734535,
        "Longitude(deg)": -46.73563269992369,
        "Mean Anomaly(deg)": -40.47133808451428,
        "RAAN(deg)": 84.99196433848913,
        "Satellite Name": "Constellation 1 393",
        "Satellite Number": 393,
        "Semi-Major Axis(m)": 7083131.272910544,
        "Time(s)": 142
    },
    {
        "Altitude(m)": 710727.2632201344,
        "Argument of Periapsis(deg)": 0.008572564893093004,
        "Eccentricity": 0.0,
        "Inclination(deg)": 45.0,
        "Latitude(deg)": -27.45113542946051,
        "Longitude(deg)": -46.685463344267774,
        "Mean Anomaly(deg)": -40.410636944264425,
        "RAAN(deg)": 84.99190774932357,
        "Satellite Name": "Constellation 1 393",
        "Satellite Number": 393,
        "Semi-Major Axis(m)": 7083131.272910544,
        "Time(s)": 143
    },
    {
        "Altitude(m)": 710713.4115669434,
        "Argument of Periapsis(deg)": 0.008632512899338408,
        "Eccentricity": 0.0,
        "Inclination(deg)": 45.0,
        "Latitude(deg)": -27.4142586214639,
        "Longitude(deg)": -46.6353299235143,
        "Mean Anomaly(deg)": -40.34993580401446,
        "RAAN(deg)": 84.99185116015799,
        "Satellite Name": "Constellation 1 393",
        "Satellite Number": 393,
        "Semi-Major Axis(m)": 7083131.272910544,
        "Time(s)": 144
    },
    {
        "Altitude(m)": 710699.5592841253,
        "Argument of Periapsis(deg)": 0.008692460905583814,
        "Eccentricity": 0.0,
        "Inclination(deg)": 45.0,
        "Latitude(deg)": -27.37736045458873,
        "Longitude(deg)": -46.585232377893355,
        "Mean Anomaly(deg)": -40.289234663764546,
        "RAAN(deg)": 84.99179457099243,
        "Satellite Name": "Constellation 1 393",
        "Satellite Number": 393,
        "Semi-Major Axis(m)": 7083131.272910544,
        "Time(s)": 145
    },
    {
        "Altitude(m)": 710685.7064195273,
        "Argument of Periapsis(deg)": 0.00875240891182922,
        "Eccentricity": 0.0,
        "Inclination(deg)": 45.0,
        "Latitude(deg)": -27.340440975611315,
        "Longitude(deg)": -46.53517064761661,
        "Mean Anomaly(deg)": -40.228533523514685,
        "RAAN(deg)": 84.99173798182686,
        "Satellite Name": "Constellation 1 393",
        "Satellite Number": 393,
        "Semi-Major Axis(m)": 7083131.272910544,
        "Time(s)": 146
    },
    {
        "Altitude(m)": 710671.8530210005,
        "Argument of Periapsis(deg)": 0.008812356918074627,
        "Eccentricity": 0.0,
        "Inclination(deg)": 45.0,
        "Latitude(deg)": -27.303500231240324,
        "Longitude(deg)": -46.485144672877674,
        "Mean Anomaly(deg)": -40.16783238326484,
        "RAAN(deg)": 84.99168139266129,
        "Satellite Name": "Constellation 1 393",
        "Satellite Number": 393,
        "Semi-Major Axis(m)": 7083131.272910544,
        "Time(s)": 147
    },
    {
        "Altitude(m)": 710657.9991363691,
        "Argument of Periapsis(deg)": 0.008872304924320031,
        "Eccentricity": 0.0,
        "Inclination(deg)": 45.0,
        "Latitude(deg)": -27.266538268117145,
        "Longitude(deg)": -46.43515456194973,
        "Mean Anomaly(deg)": -40.10713124301487,
        "RAAN(deg)": 84.99162480349572,
        "Satellite Name": "Constellation 1 393",
        "Satellite Number": 393,
        "Semi-Major Axis(m)": 7083131.272910544,
        "Time(s)": 148
    },
    {
        "Altitude(m)": 710644.1448134568,
        "Argument of Periapsis(deg)": 0.008932252930565437,
        "Eccentricity": 0.0,
        "Inclination(deg)": 45.0,
        "Latitude(deg)": -27.229555132815324,
        "Longitude(deg)": -46.38519991879765,
        "Mean Anomaly(deg)": -40.04643010276496,
        "RAAN(deg)": 84.99156821433014,
        "Satellite Name": "Constellation 1 393",
        "Satellite Number": 393,
        "Semi-Major Axis(m)": 7083131.272910544,
        "Time(s)": 149
    },
    {
        "Altitude(m)": 710630.2901000787,
        "Argument of Periapsis(deg)": 0.008992200936810843,
        "Eccentricity": 0.0,
        "Inclination(deg)": 45.0,
        "Latitude(deg)": -27.19255087184159,
        "Longitude(deg)": -46.33528085166101,
        "Mean Anomaly(deg)": -39.9857289625151,
        "RAAN(deg)": 84.99151162516458,
        "Satellite Name": "Constellation 1 393",
        "Satellite Number": 393,
        "Semi-Major Axis(m)": 7083131.272910544,
        "Time(s)": 150
    },
    {
        "Altitude(m)": 710616.4350440322,
        "Argument of Periapsis(deg)": 0.009052148943056249,
        "Eccentricity": 0.0,
        "Inclination(deg)": 45.0,
        "Latitude(deg)": -27.15552553163515,
        "Longitude(deg)": -46.285397300665906,
        "Mean Anomaly(deg)": -39.9250278222652,
        "RAAN(deg)": 84.99145503599902,
        "Satellite Name": "Constellation 1 393",
        "Satellite Number": 393,
        "Semi-Major Axis(m)": 7083131.272910544,
        "Time(s)": 151
    }
]